start=new Date('2021-11-26T00:00:00.000Z').valueOf();
sats=[{"DECAY_DATE":null,"MEAN_MOTION_DOT":"0.00000029","REV_AT_EPOCH":"6391","TLE_LINE1":"1 46567U 20070AM  21329.72792486  .00000029  00000-0  20836-4 0  9993","MEAN_MOTION_DDOT":"0.0000000000000","RCS_SIZE":"LARGE","RA_OF_ASC_NODE":"342.0186","ELEMENT_SET_NO":"999","TLE_LINE2":"2 46567  53.0558 342.0186 0001559  60.4619 299.6525 15.06390847 63916","ECCENTRICITY":"0.00015590","REF_FRAME":"TEME","OBJECT_NAME":"STARLINK-1741","FILE":"3224126","BSTAR":"0.00002083600000","ARG_OF_PERICENTER":"60.4619","OBJECT_ID":"2020-070AM","OBJECT_TYPE":"PAYLOAD","MEAN_ANOMALY":"299.6525","MEAN_MOTION":"15.06390847","CENTER_NAME":"EARTH","NORAD_CAT_ID":"46567","TIME_SYSTEM":"UTC","LAUNCH_DATE":"2020-10-06","MEAN_ELEMENT_THEORY":"SGP4","EPOCH":"2021-11-25T17:28:12.707904","CLASSIFICATION_TYPE":"U","INCLINATION":"53.0558","PERIOD":"95.593","GP_ID":"190493310","EPHEMERIS_TYPE":"0","COUNTRY_CODE":"US","PERIAPSIS":"546.162","APOAPSIS":"548.321","SITE":"AFETR","SEMIMAJOR_AXIS":"6925.377"},{"EPOCH":"2021-11-25T17:53:58.672608","MEAN_ELEMENT_THEORY":"SGP4","LAUNCH_DATE":"2020-10-06","TIME_SYSTEM":"UTC","NORAD_CAT_ID":"46568","GP_ID":"190493561","PERIOD":"93.313","INCLINATION":"53.0522","CLASSIFICATION_TYPE":"U","OBJECT_ID":"2020-070AN","OBJECT_TYPE":"PAYLOAD","CENTER_NAME":"EARTH","MEAN_MOTION":"15.43197758","MEAN_ANOMALY":"24.8225","SITE":"AFETR","SEMIMAJOR_AXIS":"6814.816","APOAPSIS":"442.121","COUNTRY_CODE":"US","EPHEMERIS_TYPE":"0","PERIAPSIS":"431.240","TLE_LINE1":"1 46568U 20070AN  21329.74581797  .00000498  00000-0  20391-4 0  9993","TLE_LINE2":"2 46568  53.0522 340.4496 0007983 335.2395  24.8225 15.43197758 63939","RA_OF_ASC_NODE":"340.4496","RCS_SIZE":"LARGE","ELEMENT_SET_NO":"999","MEAN_MOTION_DDOT":"0.0000000000000","DECAY_DATE":null,"MEAN_MOTION_DOT":"0.00000498","REV_AT_EPOCH":"6393","BSTAR":"0.00002039100000","FILE":"3224126","ARG_OF_PERICENTER":"335.2395","ECCENTRICITY":"0.00079830","OBJECT_NAME":"STARLINK-1743","REF_FRAME":"TEME"},{"APOAPSIS":"548.314","SEMIMAJOR_AXIS":"6925.372","SITE":"AFETR","EPHEMERIS_TYPE":"0","COUNTRY_CODE":"US","PERIAPSIS":"546.161","NORAD_CAT_ID":"46569","TIME_SYSTEM":"UTC","MEAN_ELEMENT_THEORY":"SGP4","LAUNCH_DATE":"2020-10-06","EPOCH":"2021-11-25T17:49:26.710464","CLASSIFICATION_TYPE":"U","INCLINATION":"53.0552","GP_ID":"190492309","PERIOD":"95.593","OBJECT_TYPE":"PAYLOAD","OBJECT_ID":"2020-070AP","MEAN_ANOMALY":"294.2324","MEAN_MOTION":"15.06392220","CENTER_NAME":"EARTH","FILE":"3224126","BSTAR":"0.00001896000000","ARG_OF_PERICENTER":"65.8827","ECCENTRICITY":"0.00015550","REF_FRAME":"TEME","OBJECT_NAME":"STARLINK-1747","TLE_LINE1":"1 46569U 20070AP  21329.74267026  .00000001  00000-0  18960-4 0  9999","MEAN_MOTION_DDOT":"0.0000000000000","RCS_SIZE":"LARGE","ELEMENT_SET_NO":"999","RA_OF_ASC_NODE":"341.9362","TLE_LINE2":"2 46569  53.0552 341.9362 0001555  65.8827 294.2324 15.06392220 63917","DECAY_DATE":null,"REV_AT_EPOCH":"6391","MEAN_MOTION_DOT":"0.00000001"},{"OBJECT_NAME":"STARLINK-1748","REF_FRAME":"TEME","ECCENTRICITY":"0.00016210","ARG_OF_PERICENTER":"55.3053","BSTAR":"0.00002571700000","FILE":"3223911","MEAN_MOTION_DOT":"0.00000101","REV_AT_EPOCH":"6381","DECAY_DATE":null,"TLE_LINE2":"2 46570  53.0559 344.7220 0001621  55.3053 304.8089 15.06392254 63811","ELEMENT_SET_NO":"999","RCS_SIZE":"LARGE","RA_OF_ASC_NODE":"344.7220","MEAN_MOTION_DDOT":"0.0000000000000","TLE_LINE1":"1 46570U 20070AQ  21329.11974241  .00000101  00000-0  25717-4 0  9995","PERIAPSIS":"546.115","COUNTRY_CODE":"US","EPHEMERIS_TYPE":"0","SEMIMAJOR_AXIS":"6925.372","SITE":"AFETR","APOAPSIS":"548.360","CENTER_NAME":"EARTH","MEAN_MOTION":"15.06392254","MEAN_ANOMALY":"304.8089","OBJECT_TYPE":"PAYLOAD","OBJECT_ID":"2020-070AQ","PERIOD":"95.593","GP_ID":"190464570","INCLINATION":"53.0559","CLASSIFICATION_TYPE":"U","EPOCH":"2021-11-25T02:52:25.744224","LAUNCH_DATE":"2020-10-06","MEAN_ELEMENT_THEORY":"SGP4","TIME_SYSTEM":"UTC","NORAD_CAT_ID":"46570"},{"COUNTRY_CODE":"US","EPHEMERIS_TYPE":"0","PERIAPSIS":"508.884","SITE":"AFETR","SEMIMAJOR_AXIS":"6888.847","APOAPSIS":"512.541","OBJECT_TYPE":"PAYLOAD","OBJECT_ID":"2020-070AR","CENTER_NAME":"EARTH","MEAN_MOTION":"15.18388542","MEAN_ANOMALY":"175.1191","EPOCH":"2021-11-25T15:31:41.916288","MEAN_ELEMENT_THEORY":"SGP4","LAUNCH_DATE":"2020-10-06","TIME_SYSTEM":"UTC","NORAD_CAT_ID":"46571","PERIOD":"94.837","GP_ID":"190493809","INCLINATION":"53.0549","CLASSIFICATION_TYPE":"U","ECCENTRICITY":"0.00026540","OBJECT_NAME":"STARLINK-1753","REF_FRAME":"TEME","BSTAR":"0.01403700000000","FILE":"3224126","ARG_OF_PERICENTER":"184.9777","DECAY_DATE":null,"REV_AT_EPOCH":"6390","MEAN_MOTION_DOT":"0.00304439","TLE_LINE1":"1 46571U 20070AR  21329.64701292  .00304439  00000-0  14037-1 0  9999","TLE_LINE2":"2 46571  53.0549 342.0225 0002654 184.9777 175.1191 15.18388542 63907","RCS_SIZE":"LARGE","ELEMENT_SET_NO":"999","RA_OF_ASC_NODE":"342.0225","MEAN_MOTION_DDOT":"0.0000000000000"},{"BSTAR":"0.00001563000000","FILE":"3224126","ARG_OF_PERICENTER":"64.1714","ECCENTRICITY":"0.00013310","OBJECT_NAME":"STARLINK-1531","REF_FRAME":"TEME","TLE_LINE1":"1 46572U 20070AS  21329.58232730 -.00000049  00000-0  15630-4 0  9993","ELEMENT_SET_NO":"999","RCS_SIZE":"LARGE","RA_OF_ASC_NODE":"2.6672","TLE_LINE2":"2 46572  53.0563   2.6672 0001331  64.1714 295.9412 15.06392929 63605","MEAN_MOTION_DDOT":"0.0000000000000","DECAY_DATE":null,"REV_AT_EPOCH":"6360","MEAN_MOTION_DOT":"-0.00000049","APOAPSIS":"548.157","SEMIMAJOR_AXIS":"6925.370","SITE":"AFETR","COUNTRY_CODE":"US","EPHEMERIS_TYPE":"0","PERIAPSIS":"546.313","MEAN_ELEMENT_THEORY":"SGP4","LAUNCH_DATE":"2020-10-06","EPOCH":"2021-11-25T13:58:33.078720","NORAD_CAT_ID":"46572","TIME_SYSTEM":"UTC","INCLINATION":"53.0563","GP_ID":"190494060","PERIOD":"95.593","CLASSIFICATION_TYPE":"U","OBJECT_ID":"2020-070AS","OBJECT_TYPE":"PAYLOAD","CENTER_NAME":"EARTH","MEAN_ANOMALY":"295.9412","MEAN_MOTION":"15.06392929"},{"MEAN_ANOMALY":"292.4937","MEAN_MOTION":"15.06388541","CENTER_NAME":"EARTH","OBJECT_ID":"2020-070AT","OBJECT_TYPE":"PAYLOAD","CLASSIFICATION_TYPE":"U","INCLINATION":"53.0558","PERIOD":"95.593","GP_ID":"190492808","NORAD_CAT_ID":"46573","TIME_SYSTEM":"UTC","LAUNCH_DATE":"2020-10-06","MEAN_ELEMENT_THEORY":"SGP4","EPOCH":"2021-11-25T18:12:40.650048","PERIAPSIS":"546.183","EPHEMERIS_TYPE":"0","COUNTRY_CODE":"US","APOAPSIS":"548.314","SEMIMAJOR_AXIS":"6925.384","SITE":"AFETR","MEAN_MOTION_DOT":"-0.00000288","REV_AT_EPOCH":"6384","DECAY_DATE":null,"MEAN_MOTION_DDOT":"0.0000000000000","RCS_SIZE":"LARGE","RA_OF_ASC_NODE":"346.8638","ELEMENT_SET_NO":"999","TLE_LINE2":"2 46573  53.0558 346.8638 0001539  67.6215 292.4937 15.06388541 63844","TLE_LINE1":"1 46573U 20070AT  21329.75880382 -.00000288  00000-0 -47055-6 0  9999","REF_FRAME":"TEME","OBJECT_NAME":"STARLINK-1650","ECCENTRICITY":"0.00015390","ARG_OF_PERICENTER":"67.6215","FILE":"3224126","BSTAR":"-0.00000047055000"},{"ECCENTRICITY":"0.00014080","OBJECT_NAME":"STARLINK-1660","REF_FRAME":"TEME","BSTAR":"0.00001092800000","FILE":"3224126","ARG_OF_PERICENTER":"65.1135","DECAY_DATE":null,"REV_AT_EPOCH":"6384","MEAN_MOTION_DOT":"-0.00000119","TLE_LINE1":"1 46574U 20070AU  21329.74404820 -.00000119  00000-0  10928-4 0  9997","ELEMENT_SET_NO":"999","RCS_SIZE":"LARGE","RA_OF_ASC_NODE":"346.9397","TLE_LINE2":"2 46574  53.0554 346.9397 0001408  65.1135 295.0000 15.06400072 63847","MEAN_MOTION_DDOT":"0.0000000000000","COUNTRY_CODE":"US","EPHEMERIS_TYPE":"0","PERIAPSIS":"546.238","APOAPSIS":"548.188","SITE":"AFETR","SEMIMAJOR_AXIS":"6925.348","OBJECT_TYPE":"PAYLOAD","OBJECT_ID":"2020-070AU","CENTER_NAME":"EARTH","MEAN_ANOMALY":"295.0000","MEAN_MOTION":"15.06400072","MEAN_ELEMENT_THEORY":"SGP4","LAUNCH_DATE":"2020-10-06","EPOCH":"2021-11-25T17:51:25.764480","NORAD_CAT_ID":"46574","TIME_SYSTEM":"UTC","INCLINATION":"53.0554","GP_ID":"190493058","PERIOD":"95.592","CLASSIFICATION_TYPE":"U"},{"REV_AT_EPOCH":"6413","MEAN_MOTION_DOT":"-0.00000660","DECAY_DATE":null,"ELEMENT_SET_NO":"999","RCS_SIZE":"LARGE","RA_OF_ASC_NODE":"323.4603","TLE_LINE2":"2 46575  53.0546 323.4603 0001664  53.1359 306.9782 15.06384554 64136","MEAN_MOTION_DDOT":"0.0000000000000","TLE_LINE1":"1 46575U 20070AV  21329.40446496 -.00000660  00000-0 -25449-4 0  9992","OBJECT_NAME":"STARLINK-1675","REF_FRAME":"TEME","ECCENTRICITY":"0.00016640","ARG_OF_PERICENTER":"53.1359","BSTAR":"-0.00002544900000","FILE":"3223911","CENTER_NAME":"EARTH","MEAN_ANOMALY":"306.9782","MEAN_MOTION":"15.06384554","OBJECT_TYPE":"PAYLOAD","OBJECT_ID":"2020-070AV","INCLINATION":"53.0546","PERIOD":"95.593","GP_ID":"190465322","CLASSIFICATION_TYPE":"U","MEAN_ELEMENT_THEORY":"SGP4","LAUNCH_DATE":"2020-10-06","EPOCH":"2021-11-25T09:42:25.772544","NORAD_CAT_ID":"46575","TIME_SYSTEM":"UTC","PERIAPSIS":"546.109","COUNTRY_CODE":"US","EPHEMERIS_TYPE":"0","APOAPSIS":"548.413","SITE":"AFETR","SEMIMAJOR_AXIS":"6925.396"},{"MEAN_MOTION_DDOT":"0.0000000000000","ELEMENT_SET_NO":"999","RCS_SIZE":"LARGE","RA_OF_ASC_NODE":"348.1551","TLE_LINE2":"2 46576  53.0549 348.1551 0001541  60.1327 299.9815 15.06397555 63809","TLE_LINE1":"1 46576U 20070AW  21329.47129187 -.00000363  00000-0 -54706-5 0  9994","MEAN_MOTION_DOT":"-0.00000363","REV_AT_EPOCH":"6380","DECAY_DATE":null,"ARG_OF_PERICENTER":"60.1327","FILE":"3223911","BSTAR":"-0.00000547060000","REF_FRAME":"TEME","OBJECT_NAME":"STARLINK-1677","ECCENTRICITY":"0.00015410","CLASSIFICATION_TYPE":"U","INCLINATION":"53.0549","GP_ID":"190465573","PERIOD":"95.592","NORAD_CAT_ID":"46576","TIME_SYSTEM":"UTC","MEAN_ELEMENT_THEORY":"SGP4","LAUNCH_DATE":"2020-10-06","EPOCH":"2021-11-25T11:18:39.617568","MEAN_ANOMALY":"299.9815","MEAN_MOTION":"15.06397555","CENTER_NAME":"EARTH","OBJECT_ID":"2020-070AW","OBJECT_TYPE":"PAYLOAD","APOAPSIS":"548.288","SEMIMAJOR_AXIS":"6925.356","SITE":"AFETR","PERIAPSIS":"546.154","EPHEMERIS_TYPE":"0","COUNTRY_CODE":"US"}];
